{
    "links": {
        "self": "http://www.neowsapp.com/rest/v1/neo/3835820?api_key=iIulBulltgU6a56xZRHN4H3l9WmuAYTsLGpBGhQ2"
    },
    "id": "3835820",
    "neo_reference_id": "3835820",
    "name": "(2018 US2)",
    "designation": "2018 US2",
    "nasa_jpl_url": "http://ssd.jpl.nasa.gov/sbdb.cgi?sstr=3835820",
    "absolute_magnitude_h": 24.8,
    "estimated_diameter": {
        "kilometers": {
            "estimated_diameter_min": 0.0291443905,
            "estimated_diameter_max": 0.0651688382
        },
        "meters": {
            "estimated_diameter_min": 29.1443904535,
            "estimated_diameter_max": 65.1688382168
        },
        "miles": {
            "estimated_diameter_min": 0.018109479,
            "estimated_diameter_max": 0.0404940262
        },
        "feet": {
            "estimated_diameter_min": 95.6180819754,
            "estimated_diameter_max": 213.8085311752
        }
    },
    "is_potentially_hazardous_asteroid": false,
    "close_approach_data": [
        {
            "close_approach_date": "1946-01-08",
            "close_approach_date_full": "1946-Jan-08 22:06",
            "epoch_date_close_approach": -756698040000,
            "relative_velocity": {
                "kilometers_per_second": "9.2355490421",
                "kilometers_per_hour": "33247.9765516792",
                "miles_per_hour": "20658.9996523476"
            },
            "miss_distance": {
                "astronomical": "1.7945450193",
                "lunar": "698.0780125077",
                "kilometers": "268460112.506388891",
                "miles": "166813378.6723170558"
            },
            "orbiting_body": "Juptr"
        },
        {
            "close_approach_date": "2005-04-05",
            "close_approach_date_full": "2005-Apr-05 08:32",
            "epoch_date_close_approach": 1112689920000,
            "relative_velocity": {
                "kilometers_per_second": "6.2013706395",
                "kilometers_per_hour": "22324.9343023677",
                "miles_per_hour": "13871.8459836017"
            },
            "miss_distance": {
                "astronomical": "1.0424827923",
                "lunar": "405.5258062047",
                "kilometers": "155953205.239732401",
                "miles": "96904828.1993770938"
            },
            "orbiting_body": "Juptr"
        },
        {
            "close_approach_date": "2018-10-25",
            "close_approach_date_full": "2018-Oct-25 13:10",
            "epoch_date_close_approach": 1540473000000,
            "relative_velocity": {
                "kilometers_per_second": "9.6009208035",
                "kilometers_per_hour": "34563.314892496",
                "miles_per_hour": "21476.2997452845"
            },
            "miss_distance": {
                "astronomical": "0.0490377507",
                "lunar": "19.0756850223",
                "kilometers": "7335943.054311009",
                "miles": "4558343.6407455642"
            },
            "orbiting_body": "Earth"
        },
        {
            "close_approach_date": "2112-03-24",
            "close_approach_date_full": "2112-Mar-24 15:58",
            "epoch_date_close_approach": 4488278280000,
            "relative_velocity": {
                "kilometers_per_second": "8.6325862076",
                "kilometers_per_hour": "31077.3103472894",
                "miles_per_hour": "19310.2320877366"
            },
            "miss_distance": {
                "astronomical": "1.7229915672",
                "lunar": "670.2437196408",
                "kilometers": "257755868.481081864",
                "miles": "160162069.8602791632"
            },
            "orbiting_body": "Juptr"
        },
        {
            "close_approach_date": "2183-05-09",
            "close_approach_date_full": "2183-May-09 11:42",
            "epoch_date_close_approach": 6732762120000,
            "relative_velocity": {
                "kilometers_per_second": "6.5457089758",
                "kilometers_per_hour": "23564.5523127941",
                "miles_per_hour": "14642.0964079136"
            },
            "miss_distance": {
                "astronomical": "1.1468919435",
                "lunar": "446.1409660215",
                "kilometers": "171572591.867760345",
                "miles": "106610265.002948961"
            },
            "orbiting_body": "Juptr"
        }
    ],
    "orbital_data": {
        "orbit_id": "12",
        "orbit_determination_date": "2020-09-11 07:41:01",
        "first_observation_date": "2018-10-28",
        "last_observation_date": "2018-11-12",
        "data_arc_in_days": 15,
        "observations_used": 74,
        "orbit_uncertainty": "7",
        "minimum_orbit_intersection": ".0483788",
        "jupiter_tisserand_invariant": "2.875",
        "epoch_osculation": "2459000.5",
        "eccentricity": ".658555619562361",
        "semi_major_axis": "2.982982589436648",
        "inclination": "7.048881425148189",
        "ascending_node_longitude": "225.8914952936055",
        "orbital_period": "1881.804508513286",
        "perihelion_distance": "1.01852264210646",
        "perihelion_argument": "151.3189689374369",
        "aphelion_distance": "4.947442536766835",
        "perihelion_time": "2458405.462651068088",
        "mean_anomaly": "113.8340590887027",
        "mean_motion": ".1913057378550001",
        "equinox": "J2000",
        "orbit_class": {
            "orbit_class_type": "AMO",
            "orbit_class_description": "Near-Earth asteroid orbits similar to that of 1221 Amor",
            "orbit_class_range": "1.017 AU < q (perihelion) < 1.3 AU"
        }
    },
    "is_sentry_object": false
}